ION SCV-004             
1 50993U 22002K   26068.68892644  .00006538  00000+0  23198-3 0  9998
2 50993  97.2961 128.2294 0007216   1.6783 358.4480 15.29369331230088
STARLINK-35663          
1 66491U 25263G   26068.14023977  .00025893  00000+0  94750-3 0  9993
2 66491  43.0016 353.8950 0000671 289.3507  70.7272 15.27568398 18810
